OBJECT_NAME,OBJECT_ID,EPOCH,MEAN_MOTION,ECCENTRICITY,INCLINATION,RA_OF_ASC_NODE,ARG_OF_PERICENTER,MEAN_ANOMALY,EPHEMERIS_TYPE,CLASSIFICATION_TYPE,NORAD_CAT_ID,ELEMENT_SET_NO,REV_AT_EPOCH,BSTAR,MEAN_MOTION_DOT,MEAN_MOTION_DDOT
STARLINK-32743,2024-254U,2026-06-30T01:21:49.491648,15.27596926,.00012953,43.0031,101.3023,275.6492,84.4211,0,U,62480,999,8484,.11391531E-2,.31234E-3,0
STARLINK-32753,2024-254V,2026-06-30T01:44:01.727808,15.27592182,.00018211,42.9989,101.4113,272.9367,87.1277,0,U,62481,999,8484,.10262662E-2,.28097E-3,0
STARLINK-32699,2024-254W,2026-06-30T01:47:03.367392,15.27586230,.00017685,42.9997,104.8939,272.7654,87.2995,0,U,62482,999,8465,.99418855E-3,.27202E-3,0
THURAYA-4,2025-001A,2026-06-30T12:34:35.664096,1.00271788,.00002208,0.0181,61.4721,8.8882,81.1779,0,U,62483,999,431,0,.15E-5,0
STARLINK-32713,2025-003A,2026-06-30T13:33:55.342368,15.27587582,.00010935,43.0026,11.5810,275.3030,84.7697,0,U,62487,999,8391,.60880889E-3,.16532E-3,0
STARLINK-32732,2025-003B,2026-06-30T14:19:58.150848,15.27595839,.00014349,42.9993,10.9486,236.7703,123.3011,0,U,62488,999,8382,.1048991E-2,.2873E-3,0
STARLINK-32328,2025-003C,2026-06-30T12:21:58.049280,15.27593519,.00012042,42.9986,12.0561,193.1970,166.8850,0,U,62489,999,8392,.78445061E-3,.21396E-3,0
STARLINK-32332,2025-003D,2026-06-30T13:39:28.930176,15.27616900,.00013099,43.0026,11.6046,239.2118,120.8605,0,U,62490,999,8391,.87234036E-3,.23847E-3,0
STARLINK-32717,2025-003E,2026-06-29T21:30:09.328320,15.27600003,.00016,42.9987,15.1578,271.3905,88.6763,0,U,62491,999,8383,.1089372E-2,.29855E-3,0
STARLINK-32757,2025-003F,2026-06-30T13:48:45.239904,15.27545467,.00010292,43.0024,11.6515,270.9939,89.0795,0,U,62492,999,8381,.68934654E-3,.18735E-3,0
STARLINK-32731,2025-003G,2026-06-30T14:07:13.944576,15.27582435,.00010424,43.0014,11.7480,224.7817,135.2951,0,U,62493,999,8393,.59206982E-3,.16067E-3,0
STARLINK-32694,2025-003H,2026-06-29T22:49:28.680096,15.27644191,.00016877,43.0017,14.7059,268.4994,91.5664,0,U,62494,999,8384,.1033374E-2,.28339E-3,0
STARLINK-32708,2025-003J,2026-06-30T13:43:10.552224,15.27592211,.00009616,43.0026,11.6245,256.4329,103.6415,0,U,62495,999,8381,.8488544E-3,.23179E-3,0
STARLINK-32718,2025-003K,2026-06-30T12:51:21.859488,15.27593821,.00009278,42.9992,11.3533,261.8896,98.1851,0,U,62496,999,8381,.46858491E-3,.1266E-3,0
STARLINK-32729,2025-003L,2026-06-30T14:36:36.978912,15.27599642,.00018912,43.0014,11.0377,274.7205,85.3430,0,U,62497,999,8394,.53086133E-3,.14383E-3,0
STARLINK-32739,2025-003M,2026-06-30T13:24:40.184352,15.27590377,.00009216,42.9985,11.5257,271.7337,88.3409,0,U,62498,999,8388,.91220493E-3,.24933E-3,0
STARLINK-32714,2025-003N,2026-06-30T12:31:12.129888,15.27575573,.00017133,43.0034,12.1130,253.8523,106.2140,0,U,62499,999,8392,.41088445E-3,.1106E-3,0
STARLINK-32685,2025-003P,2026-06-30T13:54:16.804224,15.27579878,.00017392,43.0049,11.6853,278.6330,81.4325,0,U,62500,999,8388,.57360478E-3,.15555E-3,0
STARLINK-32691,2025-003Q,2026-06-30T13:22:49.074816,15.27590368,.00018917,43.0009,11.5156,276.3213,83.7423,0,U,62501,999,8392,.73513016E-3,.20029E-3,0
STARLINK-32788,2025-003R,2026-06-30T13:17:16.491840,15.27618721,.00006371,42.9986,11.4887,251.8072,108.2710,0,U,62502,999,8381,.75386037E-3,.20565E-3,0
STARLINK-32768,2025-003S,2026-06-30T14:27:22.129344,15.27591581,.00021652,43.0006,10.9873,274.6746,85.3858,0,U,62503,999,8382,.66074248E-3,.17971E-3,0
STARLINK-32792,2025-003T,2026-06-30T14:14:24.681408,15.27607443,.00022004,42.9999,10.9163,268.7651,91.2948,0,U,62504,999,8382,.85172326E-3,.2327E-3,0
STARLINK-32725,2025-003U,2026-06-30T00:08:51.189792,15.27610205,.00024947,43.0056,14.2421,275.7509,84.3058,0,U,62505,999,8373,.10652963E-2,.29197E-3,0
STARLINK-32681,2025-003V,2026-06-30T11:57:23.006880,15.27595344,.00030146,43.0007,353.3390,285.9558,74.0961,0,U,62506,999,8413,.8665513E-3,.23673E-3,0
STARLINK-32679,2025-003W,2026-06-29T22:29:21.429312,15.27595579,.00014579,43.0044,15.4249,290.4456,69.6239,0,U,62507,999,8383,.65684327E-3,.17865E-3,0
STARLINK-32749,2025-003X,2026-06-30T13:08:01.032288,15.27583893,.00008497,42.9976,11.4381,277.4301,82.6454,0,U,62508,999,8381,.66194712E-3,.18E-3,0
STARLINK-32744,2025-003Y,2026-06-30T13:59:49.776864,15.27578924,.00012843,43.0039,11.7141,263.6430,96.4276,0,U,62509,999,8381,.62519996E-3,.16981E-3,0
STARLINK-32701,2025-003Z,2026-06-30T13:28:22.351584,15.27592114,.00009031,42.9990,11.5459,258.5679,101.5071,0,U,62510,999,8381,.10035578E-2,.27467E-3,0
STARLINK-11452 [DTC],2025-004A,2026-06-30T00:11:45.616704,15.70833639,.00018021,42.9997,113.6834,272.6396,87.4265,0,U,62511,999,8579,.11461817E-2,.149253E-2,0
