STARLINK-32743          
1 62480U 24254U   26181.05682282  .00031234  00000+0  11392-2 0  9998
2 62480  43.0031 101.3023 0001295 275.6492  84.4211 15.27596926 84841
STARLINK-32753          
1 62481U 24254V   26181.07224222  .00028097  00000+0  10263-2 0  9996
2 62481  42.9989 101.4113 0001821 272.9367  87.1277 15.27592182 84841
STARLINK-32699          
1 62482U 24254W   26181.07434453  .00027202  00000+0  99419-3 0  9994
2 62482  42.9997 104.8939 0001768 272.7654  87.2995 15.27586230 84655
THURAYA-4               
1 62483U 25001A   26181.52402389  .00000150  00000+0  00000+0 0  9996
2 62483   0.0181  61.4721 0000220   8.8882  81.1779  1.00271788  4319
STARLINK-32713          
1 62487U 25003A   26181.56522387  .00016532  00000+0  60881-3 0  9995
2 62487  43.0026  11.5810 0001093 275.3030  84.7697 15.27587582 83915
STARLINK-32732          
1 62488U 25003B   26181.59720082  .00028730  00000+0  10490-2 0  9994
2 62488  42.9993  10.9486 0001434 236.7703 123.3011 15.27595839 83820
STARLINK-32328          
1 62489U 25003C   26181.51525520  .00021396  00000+0  78445-3 0  9993
2 62489  42.9986  12.0561 0001204 193.1970 166.8850 15.27593519 83924
STARLINK-32332          
1 62490U 25003D   26181.56908484  .00023847  00000+0  87234-3 0  9993
2 62490  43.0026  11.6046 0001309 239.2118 120.8605 15.27616900 83915
STARLINK-32717          
1 62491U 25003E   26180.89594130  .00029855  00000+0  10894-2 0  9990
2 62491  42.9987  15.1578 0001600 271.3905  88.6763 15.27600003 83838
STARLINK-32757          
1 62492U 25003F   26181.57552361  .00018735  00000+0  68935-3 0  9992
2 62492  43.0024  11.6515 0001029 270.9939  89.0795 15.27545467 83812
STARLINK-32731          
1 62493U 25003G   26181.58835584  .00016067  00000+0  59207-3 0  9993
2 62493  43.0014  11.7480 0001042 224.7817 135.2951 15.27582435 83938
STARLINK-32694          
1 62494U 25003H   26180.95102639  .00028339  00000+0  10334-2 0  9994
2 62494  43.0017  14.7059 0001687 268.4994  91.5664 15.27644191 83846
STARLINK-32708          
1 62495U 25003J   26181.57164991  .00023179  00000+0  84885-3 0  9993
2 62495  43.0026  11.6245 0000961 256.4329 103.6415 15.27592211 83814
STARLINK-32718          
1 62496U 25003K   26181.53566967  .00012660  00000+0  46858-3 0  9990
2 62496  42.9992  11.3533 0000927 261.8896  98.1851 15.27593821 83813
STARLINK-32729          
1 62497U 25003L   26181.60876133  .00014383  00000+0  53086-3 0  9993
2 62497  43.0014  11.0377 0001891 274.7205  85.3430 15.27599642 83944
STARLINK-32739          
1 62498U 25003M   26181.55879843  .00024933  00000+0  91220-3 0  9993
2 62498  42.9985  11.5257 0000921 271.7337  88.3409 15.27590377 83886
STARLINK-32714          
1 62499U 25003N   26181.52166817  .00011060  00000+0  41088-3 0  9995
2 62499  43.0034  12.1130 0001713 253.8523 106.2140 15.27575573 83927
STARLINK-32685          
1 62500U 25003P   26181.57936116  .00015555  00000+0  57360-3 0  9993
2 62500  43.0049  11.6853 0001739 278.6330  81.4325 15.27579878 83887
STARLINK-32691          
1 62501U 25003Q   26181.55751244  .00020029  00000+0  73513-3 0  9999
2 62501  43.0009  11.5156 0001891 276.3213  83.7423 15.27590368 83929
STARLINK-32788          
1 62502U 25003R   26181.55366310  .00020565  00000+0  75386-3 0  9991
2 62502  42.9986  11.4887 0000637 251.8072 108.2710 15.27618721 83814
STARLINK-32768          
1 62503U 25003S   26181.60233946  .00017971  00000+0  66074-3 0  9997
2 62503  43.0006  10.9873 0002165 274.6746  85.3858 15.27591581 83821
STARLINK-32792          
1 62504U 25003T   26181.59334122  .00023270  00000+0  85172-3 0  9993
2 62504  42.9999  10.9163 0002200 268.7651  91.2948 15.27607443 83823
STARLINK-32725          
1 62505U 25003U   26181.00614803  .00029197  00000+0  10653-2 0  9992
2 62505  43.0056  14.2421 0002494 275.7509  84.3058 15.27610205 83734
STARLINK-32681          
1 62506U 25003V   26181.49818295  .00023673  00000+0  86655-3 0  9996
2 62506  43.0007 353.3390 0003014 285.9558  74.0961 15.27595344 84139
STARLINK-32679          
1 62507U 25003W   26180.93705358  .00017865  00000+0  65684-3 0  9995
2 62507  43.0044  15.4249 0001457 290.4456  69.6239 15.27595579 83831
STARLINK-32749          
1 62508U 25003X   26181.54723417  .00018000  00000+0  66195-3 0  9990
2 62508  42.9976  11.4381 0000849 277.4301  82.6454 15.27583893 83813
STARLINK-32744          
1 62509U 25003Y   26181.58321501  .00016981  00000+0  62520-3 0  9997
2 62509  43.0039  11.7141 0001284 263.6430  96.4276 15.27578924 83811
STARLINK-32701          
1 62510U 25003Z   26181.56136981  .00027467  00000+0  10036-2 0  9998
2 62510  42.9990  11.5459 0000903 258.5679 101.5071 15.27592114 83810
STARLINK-11452 [DTC]    
1 62511U 25004A   26181.00816686  .00149253  00000+0  11462-2 0  9998
2 62511  42.9997 113.6834 0001802 272.6396  87.4265 15.70833639 85795
